YAOGAN-35 03B           
1 53318U 22088C   26068.54399603  .00010651  00000+0  44045-3 0  9993
2 53318  34.9880 116.4068 0013847 202.6301 157.3803 15.23107662201134
STARLINK-31872          
1 59922U 24106A   26068.13228433  .00000506  00000+0  27932-4 0  9995
2 59922  43.0037 336.0083 0002266 281.8013  78.2584 15.27559083100479
