[{"OBJECT_NAME":"YAOGAN-35 03B","OBJECT_ID":"2022-088C","EPOCH":"2026-03-09T13:03:21.256992","MEAN_MOTION":15.23107662,"ECCENTRICITY":0.0013847,"INCLINATION":34.988,"RA_OF_ASC_NODE":116.4068,"ARG_OF_PERICENTER":202.6301,"MEAN_ANOMALY":157.3803,"EPHEMERIS_TYPE":0,"CLASSIFICATION_TYPE":"U","NORAD_CAT_ID":53318,"ELEMENT_SET_NO":999,"REV_AT_EPOCH":20113,"BSTAR":0.00044045,"MEAN_MOTION_DOT":0.00010651,"MEAN_MOTION_DDOT":0},{"OBJECT_NAME":"STARLINK-31872","OBJECT_ID":"2024-106A","EPOCH":"2026-03-09T03:10:29.366112","MEAN_MOTION":15.27559083,"ECCENTRICITY":0.00022667,"INCLINATION":43.0037,"RA_OF_ASC_NODE":336.0083,"ARG_OF_PERICENTER":281.8013,"MEAN_ANOMALY":78.2584,"EPHEMERIS_TYPE":0,"CLASSIFICATION_TYPE":"U","NORAD_CAT_ID":59922,"ELEMENT_SET_NO":999,"REV_AT_EPOCH":10047,"BSTAR":2.7932143e-5,"MEAN_MOTION_DOT":5.06e-6,"MEAN_MOTION_DDOT":0}]
